[{"OBJECT_NAME":"TYVAK-0173","OBJECT_ID":"2021-059P","EPOCH":"2026-03-09T20:34:33.037248","MEAN_MOTION":14.81501003,"ECCENTRICITY":0.0009326,"INCLINATION":96.0076,"RA_OF_ASC_NODE":169.9257,"ARG_OF_PERICENTER":18.4576,"MEAN_ANOMALY":341.6978,"EPHEMERIS_TYPE":0,"CLASSIFICATION_TYPE":"U","NORAD_CAT_ID":48892,"ELEMENT_SET_NO":999,"REV_AT_EPOCH":25353,"BSTAR":0.00038359729,"MEAN_MOTION_DOT":2.977e-5,"MEAN_MOTION_DDOT":0},{"OBJECT_NAME":"KUIPER-00078","OBJECT_ID":"2025-151K","EPOCH":"2026-03-09T22:25:22.408032","MEAN_MOTION":14.79910308,"ECCENTRICITY":9.148e-5,"INCLINATION":51.901,"RA_OF_ASC_NODE":294.5072,"ARG_OF_PERICENTER":57.8645,"MEAN_ANOMALY":302.2406,"EPHEMERIS_TYPE":0,"CLASSIFICATION_TYPE":"U","NORAD_CAT_ID":64825,"ELEMENT_SET_NO":999,"REV_AT_EPOCH":3541,"BSTAR":-0.00014297297,"MEAN_MOTION_DOT":-1.31e-5,"MEAN_MOTION_DDOT":0}]
